[{"OBJECT_NAME":"HULIANWANG DIGUI-120","OBJECT_ID":"2025-295B","EPOCH":"2026-03-09T15:52:52.087008","MEAN_MOTION":13.43425316,"ECCENTRICITY":0.00016727,"INCLINATION":50.006,"RA_OF_ASC_NODE":23.094,"ARG_OF_PERICENTER":357.7602,"MEAN_ANOMALY":2.3269,"EPHEMERIS_TYPE":0,"CLASSIFICATION_TYPE":"U","NORAD_CAT_ID":67060,"ELEMENT_SET_NO":999,"REV_AT_EPOCH":1225,"BSTAR":0.00011085235,"MEAN_MOTION_DOT":-6.5e-7,"MEAN_MOTION_DDOT":0},{"OBJECT_NAME":"OPS 4947 (TRANSIT 17)","OBJECT_ID":"1967-092A","EPOCH":"2026-03-09T21:34:02.915040","MEAN_MOTION":13.53478294,"ECCENTRICITY":0.0047373,"INCLINATION":89.2565,"RA_OF_ASC_NODE":17.7987,"ARG_OF_PERICENTER":345.3505,"MEAN_ANOMALY":72.9666,"EPHEMERIS_TYPE":0,"CLASSIFICATION_TYPE":"U","NORAD_CAT_ID":2965,"ELEMENT_SET_NO":999,"REV_AT_EPOCH":88276,"BSTAR":0.00026423544,"MEAN_MOTION_DOT":1.9e-6,"MEAN_MOTION_DDOT":0}]
